STARLINK-1506           
1 45747U 20038T   26068.66028804  .00025380  00000+0  97997-3 0  9997
2 45747  53.0733 202.5028 0002514 227.7836 132.2949 15.26134655316688
STARLINK-31087          
1 58597U 23200J   26067.67929479  .00001444  00000+0  63485-4 0  9997
2 58597  42.9986 173.9308 0000913 268.8991  91.1755 15.26741848123359
